[{"OBJECT_NAME":"HERMES-3","OBJECT_ID":"2025-052BR","EPOCH":"2026-03-09T22:30:01.073952","MEAN_MOTION":15.30039786,"ECCENTRICITY":0.00079928,"INCLINATION":97.3987,"RA_OF_ASC_NODE":324.6131,"ARG_OF_PERICENTER":112.9583,"MEAN_ANOMALY":247.2502,"EPHEMERIS_TYPE":0,"CLASSIFICATION_TYPE":"U","NORAD_CAT_ID":63835,"ELEMENT_SET_NO":999,"REV_AT_EPOCH":5486,"BSTAR":0.0006995793,"MEAN_MOTION_DOT":0.00020316,"MEAN_MOTION_DDOT":0},{"OBJECT_NAME":"STARLINK-35963","OBJECT_ID":"2025-268AE","EPOCH":"2026-03-09T03:41:06.953280","MEAN_MOTION":15.27578695,"ECCENTRICITY":0.00014151,"INCLINATION":43.0027,"RA_OF_ASC_NODE":350.4473,"ARG_OF_PERICENTER":252.4104,"MEAN_ANOMALY":107.6593,"EPHEMERIS_TYPE":0,"CLASSIFICATION_TYPE":"U","NORAD_CAT_ID":66585,"ELEMENT_SET_NO":999,"REV_AT_EPOCH":1787,"BSTAR":0.0013187789,"MEAN_MOTION_DOT":0.00036205,"MEAN_MOTION_DDOT":0}]
